[{"OBJECT_NAME":"STARLINK-30515","OBJECT_ID":"2023-151V","EPOCH":"2026-03-09T04:33:05.756544","MEAN_MOTION":15.02535748,"ECCENTRICITY":0.00013484,"INCLINATION":43.0055,"RA_OF_ASC_NODE":354.6324,"ARG_OF_PERICENTER":270.3193,"MEAN_ANOMALY":89.7495,"EPHEMERIS_TYPE":0,"CLASSIFICATION_TYPE":"U","NORAD_CAT_ID":57983,"ELEMENT_SET_NO":999,"REV_AT_EPOCH":13550,"BSTAR":1.2125609e-5,"MEAN_MOTION_DOT":-4.0e-7,"MEAN_MOTION_DDOT":0},{"OBJECT_NAME":"OBJECT C","OBJECT_ID":"2025-313C","EPOCH":"2026-03-09T21:13:39.359712","MEAN_MOTION":14.86307196,"ECCENTRICITY":0.01562422,"INCLINATION":97.6236,"RA_OF_ASC_NODE":143.4861,"ARG_OF_PERICENTER":305.4656,"MEAN_ANOMALY":53.2062,"EPHEMERIS_TYPE":0,"CLASSIFICATION_TYPE":"U","NORAD_CAT_ID":67250,"ELEMENT_SET_NO":999,"REV_AT_EPOCH":1059,"BSTAR":0.0010268788,"MEAN_MOTION_DOT":0.00011246,"MEAN_MOTION_DDOT":0}]
